ICEYE-X72               
1 68504U 26067CS  26197.25002315  .00110360  00000+0  96257-2 0  9998
2 68504  97.7648 155.2133 0000683 162.2319 252.7793 14.96281213  5666
ICEYE-X78               
1 68995U 26100R   26197.18602655  .00000515  00000+0  56565-4 0  9995
2 68995  97.7332  94.0998 0003528  53.0659 307.0883 14.91812874 11023
ICEYE-X82               
1 68996U 26100S   26197.20823338  .00001279  00000+0  13357-3 0  9991
2 68996  97.7326  94.0653 0005685  61.6722 298.5070 14.91427284 11026
