{"fetched_at":"2026-07-16T17:46:41.220Z","source":"https://celestrak.org/NORAD/elements/gp.php?NAME=ICEYE&FORMAT=JSON","constellation":"iceye","records":[{"OBJECT_NAME":"ICEYE-X72","OBJECT_ID":"2026-067CS","EPOCH":"2026-07-16T06:00:02.000160","CLASSIFICATION_TYPE":"U","MEAN_MOTION":14.96281213,"ECCENTRICITY":0.0000683,"INCLINATION":97.7648,"RA_OF_ASC_NODE":155.2133,"ARG_OF_PERICENTER":162.2319,"MEAN_ANOMALY":252.7793,"EPHEMERIS_TYPE":0,"NORAD_CAT_ID":68504,"ELEMENT_SET_NO":999,"REV_AT_EPOCH":566,"BSTAR":0.0096256696,"MEAN_MOTION_DOT":0.0011036,"MEAN_MOTION_DDOT":0},{"OBJECT_NAME":"ICEYE-X78","OBJECT_ID":"2026-100R","EPOCH":"2026-07-16T04:27:52.693920","CLASSIFICATION_TYPE":"U","MEAN_MOTION":14.91812874,"ECCENTRICITY":0.00035288,"INCLINATION":97.7332,"RA_OF_ASC_NODE":94.0998,"ARG_OF_PERICENTER":53.0659,"MEAN_ANOMALY":307.0883,"EPHEMERIS_TYPE":0,"NORAD_CAT_ID":68995,"ELEMENT_SET_NO":999,"REV_AT_EPOCH":1102,"BSTAR":0.000056565144,"MEAN_MOTION_DOT":0.00000515,"MEAN_MOTION_DDOT":0},{"OBJECT_NAME":"ICEYE-X82","OBJECT_ID":"2026-100S","EPOCH":"2026-07-16T04:59:51.364032","CLASSIFICATION_TYPE":"U","MEAN_MOTION":14.91427284,"ECCENTRICITY":0.00056859,"INCLINATION":97.7326,"RA_OF_ASC_NODE":94.0653,"ARG_OF_PERICENTER":61.6722,"MEAN_ANOMALY":298.507,"EPHEMERIS_TYPE":0,"NORAD_CAT_ID":68996,"ELEMENT_SET_NO":999,"REV_AT_EPOCH":1102,"BSTAR":0.00013356671,"MEAN_MOTION_DOT":0.00001279,"MEAN_MOTION_DDOT":0}]}
